METEOR-M2 2             
1 44387U 19038A   21324.07139737 -.00000024  00000-0  88776-5 0  9994
2 44387  98.6920 281.8830 0001856 122.8911 237.2452 14.23694183123615
